NORAD_CAT_ID,OBJECT_NAME,OBJECT_TYPE,EPOCH,MEAN_MOTION,ECCENTRICITY,INCLINATION,RA_OF_ASC_NODE,ARG_OF_PERICENTER,MEAN_ANOMALY,BSTAR,MEAN_MOTION_DOT,MEAN_MOTION_DDOT,TLE_LINE0,TLE_LINE1,TLE_LINE2,SEMIMAJOR_AXIS,PERIOD,APOGEE,PERIGEE,DECAYED
53286.0,STARLINK-4165,PAYLOAD,2023-11-26 05:47:15,15.0886081,0.0001698,53.217,330.1187,98.2194,261.8991,0.00036894,5.592e-05,0.0,0 STARLINK-4165,1 53286U 22086AW  23330.24115263  .00005592  00000-0  36894-3 0  9991,2 53286  53.2170 330.1187 0001698  98.2194 261.8991 15.08860810 75212,6917.817,95.436,540.856,538.507,0.0
53286.0,STARLINK-4165,PAYLOAD,2023-11-27 04:02:41,15.08805448,0.0001752,53.2175,325.9553,76.6889,283.4298,-0.00070105,-0.00011417,0.0,0 STARLINK-4165,1 53286U 22086AW  23331.16853499 -.00011417  00000-0 -70105-3 0  9991,2 53286  53.2175 325.9553 0001752  76.6889 283.4298 15.08805448 75191,6917.986,95.44,541.063,538.639,0.0
53286.0,STARLINK-4165,PAYLOAD,2023-11-27 08:48:50,15.08807564,0.000186,53.2171,325.0628,102.6846,257.4354,-0.00056986,-9.338e-05,0.0,0 STARLINK-4165,1 53286U 22086AW  23331.36725675 -.00009338  00000-0 -56986-3 0  9997,2 53286  53.2171 325.0628 0001860 102.6846 257.4354 15.08807564 75380,6917.98,95.44,541.131,538.558,0.0
53286.0,STARLINK-4165,PAYLOAD,2023-11-28 00:42:42,15.088286,0.0001727,53.2193,322.1006,82.1746,277.9442,0.00010783,1.428e-05,0.0,0 STARLINK-4165,1 53286U 22086AW  23332.02966099  .00001428  00000-0  10783-3 0  9993,2 53286  53.2193 322.1006 0001727  82.1746 277.9442 15.08828600 75328,6917.915,95.438,540.975,538.586,0.0
53286.0,STARLINK-4165,PAYLOAD,2023-11-28 07:04:15,15.08847802,0.0001945,53.2174,320.9032,77.8595,282.2615,0.00085766,0.00013391,0.0,0 STARLINK-4165,1 53286U 22086AW  23332.29461923  .00013391  00000-0  85766-3 0  9993,2 53286  53.2174 320.9032 0001945  77.8595 282.2615 15.08847802 75367,6917.857,95.437,541.067,538.376,0.0
53286.0,STARLINK-4165,PAYLOAD,2023-11-29 03:44:15,15.08855761,0.0002163,53.217,317.0369,74.9852,285.1379,0.00046171,7.071e-05,0.0,0 STARLINK-4165,1 53286U 22086AW  23333.15573550  .00007071  00000-0  46171-3 0  9994,2 53286  53.2170 317.0369 0002163  74.9852 285.1379 15.08855761 75496,6917.832,95.437,541.194,538.201,0.0
53286.0,STARLINK-4165,PAYLOAD,2023-11-29 05:19:38,15.08855154,0.0002268,53.2172,316.7399,71.3116,288.8122,0.00055981,8.636e-05,0.0,0 STARLINK-4165,1 53286U 22086AW  23333.22197588  .00008636  00000-0  55981-3 0  9992,2 53286  53.2172 316.7399 0002268  71.3116 288.8122 15.08855154 75668,6917.834,95.437,541.268,538.13,0.0
53286.0,STARLINK-4165,PAYLOAD,2023-11-30 03:35:02,15.08851347,0.0002091,53.2169,312.5735,101.8599,258.2628,8.9024e-05,1.129e-05,0.0,0 STARLINK-4165,1 53286U 22086AW  23334.14932935  .00001129  00000-0  89024-4 0  9993,2 53286  53.2169 312.5735 0002091 101.8599 258.2628 15.08851347 75640,6917.846,95.437,541.157,538.264,0.0
53286.0,STARLINK-4165,PAYLOAD,2023-12-01 05:01:12,15.08846239,0.0002148,53.2188,307.8054,93.2447,266.8791,0.00028149,4.195e-05,0.0,0 STARLINK-4165,1 53286U 22086AW  23335.20917050  .00004195  00000-0  28149-3 0  9998,2 53286  53.2188 307.8054 0002148  93.2447 266.8791 15.08846239 75809,6917.861,95.437,541.212,538.24,0.0
53286.0,STARLINK-4165,PAYLOAD,2023-12-01 08:11:58,15.08848007,0.0002177,53.2187,307.2149,98.4984,261.6255,0.00040383,6.146e-05,0.0,0 STARLINK-4165,1 53286U 22086AW  23335.34165069  .00006146  00000-0  40383-3 0  9990,2 53286  53.2187 307.2149 0002177  98.4984 261.6255 15.08848007 75984,6917.856,95.437,541.227,538.215,0.0
53286.0,STARLINK-4165,PAYLOAD,2023-12-02 09:38:06,15.08923881,0.0002069,53.2183,302.4549,98.1082,262.0145,0.0028058,0.00044754,0.0,0 STARLINK-4165,1 53286U 22086AW  23336.40146924  .00044754  00000-0  28058-2 0  9998,2 53286  53.2183 302.4549 0002069  98.1082 262.0145 15.08923881 75984,6917.624,95.432,540.92,538.058,0.0
53286.0,STARLINK-4165,PAYLOAD,2023-12-03 03:07:23,15.08807766,0.0002318,53.2186,299.1861,110.7617,249.3623,-0.00096404,-0.00015585,0.0,0 STARLINK-4165,1 53286U 22086AW  23337.13013282 -.00015585  00000-0 -96404-3 0  9992,2 53286  53.2186 299.1861 0002318 110.7617 249.3623 15.08807766 76093,6917.979,95.44,541.448,538.24,0.0
53286.0,STARLINK-4165,PAYLOAD,2023-12-03 04:42:47,15.08802695,0.0002122,53.2192,298.8903,86.4561,273.6673,-0.00080792,-0.0001311,0.0,0 STARLINK-4165,1 53286U 22086AW  23337.19637779 -.00013110  00000-0 -80792-3 0  9996,2 53286  53.2192 298.8903 0002122  86.4561 273.6673 15.08802695 76263,6917.994,95.44,541.327,538.391,0.0
53286.0,STARLINK-4165,PAYLOAD,2023-12-03 12:39:43,15.08814008,0.0001988,53.2192,297.4037,90.7962,269.3258,-0.0001813,-3.17e-05,0.0,0 STARLINK-4165,1 53286U 22086AW  23337.52758356 -.00003170  00000-0 -18130-3 0  9990,2 53286  53.2192 297.4037 0001988  90.7962 269.3258 15.08814008 76158,6917.96,95.439,541.2,538.45,0.0
53286.0,STARLINK-4165,PAYLOAD,2023-12-04 02:58:12,15.08836708,0.0001942,53.2176,294.735,80.2506,279.8705,0.0012478,0.00019625,0.0,0 STARLINK-4165,1 53286U 22086AW  23338.12375337  .00019625  00000-0  12478-2 0  9999,2 53286  53.2176 294.7350 0001942  80.2506 279.8705 15.08836708 76240,6917.89,95.438,541.099,538.412,0.0
53286.0,STARLINK-4165,PAYLOAD,2023-12-04 07:44:21,15.08846606,0.0002031,53.2179,293.84,75.7848,284.3369,0.001087,0.00017057,0.0,0 STARLINK-4165,1 53286U 22086AW  23338.32247228  .00017057  00000-0  10870-2 0  9999,2 53286  53.2179 293.8400 0002031  75.7848 284.3369 15.08846606 76433,6917.86,95.437,541.13,538.32,0.0
53286.0,STARLINK-4165,PAYLOAD,2023-12-05 05:59:44,15.08884134,0.0001992,53.2165,289.6754,87.8791,272.2429,0.0013657,0.0002154,0.0,0 STARLINK-4165,1 53286U 22086AW  23339.24981614  .00021540  00000-0  13657-2 0  9993,2 53286  53.2165 289.6754 0001992  87.8791 272.2429 15.08884134 76418,6917.745,95.435,540.989,538.232,0.0
53286.0,STARLINK-4165,PAYLOAD,2023-12-05 20:18:12,15.08860501,0.000232,53.2158,286.9994,86.415,273.7108,0.00097213,0.00015226,0.0,0 STARLINK-4165,1 53286U 22086AW  23339.84597571  .00015226  00000-0  97213-3 0  9999,2 53286  53.2158 286.9994 0002320  86.4150 273.7108 15.08860501 76508,6917.818,95.436,541.288,538.078,0.0
53286.0,STARLINK-4165,PAYLOAD,2023-12-06 04:15:07,15.08855659,0.0001901,53.217,285.5118,85.8022,274.3187,0.00036981,5.605e-05,0.0,0 STARLINK-4165,1 53286U 22086AW  23340.17717343  .00005605  00000-0  36981-3 0  9993,2 53286  53.2170 285.5118 0001901  85.8022 274.3187 15.08855659 76557,6917.833,95.437,541.013,538.382,0.0
53286.0,STARLINK-4165,PAYLOAD,2023-12-06 05:50:30,15.08853747,0.0001963,53.217,285.215,81.5905,278.5309,0.00035619,5.387e-05,0.0,0 STARLINK-4165,1 53286U 22086AW  23340.24341380  .00005387  00000-0  35619-3 0  9999,2 53286  53.2170 285.2150 0001963  81.5905 278.5309 15.08853747 76728,6917.838,95.437,541.061,538.345,0.0
53286.0,STARLINK-4165,PAYLOAD,2023-12-06 20:08:59,15.08830683,0.0001817,53.2182,282.541,85.1568,274.9631,0.00040917,6.228e-05,0.0,0 STARLINK-4165,1 53286U 22086AW  23340.83958087  .00006228  00000-0  40917-3 0  9994,2 53286  53.2182 282.5410 0001817  85.1568 274.9631 15.08830683 76657,6917.909,95.438,541.031,538.517,0.0
53286.0,STARLINK-4165,PAYLOAD,2023-12-07 05:41:18,15.08838379,0.0001904,53.2164,280.7554,86.5835,273.5375,0.00055309,8.525e-05,0.0,0 STARLINK-4165,1 53286U 22086AW  23341.23702172  .00008525  00000-0  55309-3 0  9994,2 53286  53.2164 280.7554 0001904  86.5835 273.5375 15.08838379 76879,6917.885,95.438,541.068,538.433,0.0
53286.0,STARLINK-4165,PAYLOAD,2023-12-08 02:21:19,15.08847353,0.0001902,53.2167,276.8891,91.3104,268.8106,0.00049589,7.614e-05,0.0,0 STARLINK-4165,1 53286U 22086AW  23342.09814080  .00007614  00000-0  49589-3 0  9992,2 53286  53.2167 276.8891 0001902  91.3104 268.8106 15.08847353 76841,6917.858,95.437,541.039,538.407,0.0
53286.0,STARLINK-4165,PAYLOAD,2023-12-09 02:12:06,15.08846375,0.0001881,53.2171,272.4285,91.3344,268.7863,0.00023032,3.38e-05,0.0,0 STARLINK-4165,1 53286U 22086AW  23343.09173901  .00003380  00000-0  23032-3 0  9994,2 53286  53.2171 272.4285 0001881  91.3344 268.7863 15.08846375 76995,6917.861,95.437,541.027,538.425,0.0
53286.0,STARLINK-4165,PAYLOAD,2023-12-09 05:22:52,15.08846956,0.0001875,53.2172,271.8337,90.7893,269.3314,0.00020159,2.922e-05,0.0,0 STARLINK-4165,1 53286U 22086AW  23343.22421838  .00002922  00000-0  20159-3 0  9992,2 53286  53.2172 271.8337 0001875  90.7893 269.3314 15.08846956 77176,6917.859,95.437,541.021,538.427,0.0
53286.0,STARLINK-4165,PAYLOAD,2023-12-10 05:13:39,15.0884349,0.0001875,53.2175,267.373,96.019,264.1016,9.3231e-05,1.196e-05,0.0,0 STARLINK-4165,1 53286U 22086AW  23344.21781809  .00001196  00000-0  93231-4 0  9993,2 53286  53.2175 267.3730 0001875  96.0190 264.1016 15.08843490 77166,6917.87,95.437,541.032,538.438,0.0
53286.0,STARLINK-4165,PAYLOAD,2023-12-10 22:42:54,15.08840047,0.0001913,53.2172,264.1023,94.43,265.691,3.3173e-05,2.4e-06,0.0,0 STARLINK-4165,1 53286U 22086AW  23344.94645922  .00000240  00000-0  33173-4 0  9996,2 53286  53.2172 264.1023 0001913  94.4300 265.6910 15.08840047 77435,6917.88,95.438,541.069,538.422,0.0
53286.0,STARLINK-4165,PAYLOAD,2023-12-11 00:18:17,15.08840882,0.000197,53.2173,263.8031,88.0664,272.0554,8.9807e-05,1.141e-05,0.0,0 STARLINK-4165,1 53286U 22086AW  23345.01269960  .00001141  00000-0  89807-4 0  9995,2 53286  53.2173 263.8031 0001970  88.0664 272.0554 15.08840882 77282,6917.878,95.437,541.106,538.38,0.0
53286.0,STARLINK-4165,PAYLOAD,2023-12-12 01:44:27,15.08835466,0.0001887,53.2162,259.0504,79.0514,281.069,6.828e-05,7.99e-06,0.0,0 STARLINK-4165,1 53286U 22086AW  23346.07254456  .00000799  00000-0  68280-4 0  9996,2 53286  53.2162 259.0504 0001887  79.0514 281.0690 15.08835466 77444,6917.894,95.438,541.065,538.454,0.0
53286.0,STARLINK-4165,PAYLOAD,2023-12-12 22:24:28,15.08841472,0.0001894,53.2162,255.1853,81.2789,278.8417,0.00015223,2.136e-05,0.0,0 STARLINK-4165,1 53286U 22086AW  23346.93366427  .00002136  00000-0  15223-3 0  9998,2 53286  53.2162 255.1853 0001894  81.2789 278.8417 15.08841472 77732,6917.876,95.437,541.051,538.431,0.0
